[{"OBJECT_NAME":"COSMOS 2251 DEB","OBJECT_ID":"1993-036PR","EPOCH":"2026-03-05T01:34:18.005952","MEAN_MOTION":14.71073543,"ECCENTRICITY":0.00227035,"INCLINATION":74.0183,"RA_OF_ASC_NODE":289.7069,"ARG_OF_PERICENTER":186.5422,"MEAN_ANOMALY":291.4543,"EPHEMERIS_TYPE":0,"CLASSIFICATION_TYPE":"U","NORAD_CAT_ID":34343,"ELEMENT_SET_NO":999,"REV_AT_EPOCH":89940,"BSTAR":0.0014276255,"MEAN_MOTION_DOT":8.788e-5,"MEAN_MOTION_DDOT":0},{"OBJECT_NAME":"COSMOS 2251 DEB","OBJECT_ID":"1993-036PS","EPOCH":"2026-03-04T21:44:11.913216","MEAN_MOTION":14.17053914,"ECCENTRICITY":0.01545261,"INCLINATION":73.9791,"RA_OF_ASC_NODE":323.5795,"ARG_OF_PERICENTER":130.2034,"MEAN_ANOMALY":355.2269,"EPHEMERIS_TYPE":0,"CLASSIFICATION_TYPE":"U","NORAD_CAT_ID":34344,"ELEMENT_SET_NO":999,"REV_AT_EPOCH":87260,"BSTAR":0.0015619825,"MEAN_MOTION_DOT":3.51e-5,"MEAN_MOTION_DDOT":0},{"OBJECT_NAME":"COSMOS 2251 DEB","OBJECT_ID":"1993-036PU","EPOCH":"2026-03-05T06:48:49.664160","MEAN_MOTION":14.00018231,"ECCENTRICITY":0.0208884,"INCLINATION":73.9944,"RA_OF_ASC_NODE":168.973,"ARG_OF_PERICENTER":328.6811,"MEAN_ANOMALY":59.876,"EPHEMERIS_TYPE":0,"CLASSIFICATION_TYPE":"U","NORAD_CAT_ID":34346,"ELEMENT_SET_NO":999,"REV_AT_EPOCH":86565,"BSTAR":0.00085259427,"MEAN_MOTION_DOT":1.49e-5,"MEAN_MOTION_DDOT":0},{"OBJECT_NAME":"COSMOS 2251 DEB","OBJECT_ID":"1993-036PY","EPOCH":"2026-03-05T06:27:29.734560","MEAN_MOTION":15.21718996,"ECCENTRICITY":0.00130357,"INCLINATION":74.0257,"RA_OF_ASC_NODE":125.9605,"ARG_OF_PERICENTER":292.0269,"MEAN_ANOMALY":141.1238,"EPHEMERIS_TYPE":0,"CLASSIFICATION_TYPE":"U","NORAD_CAT_ID":34383,"ELEMENT_SET_NO":999,"REV_AT_EPOCH":90363,"BSTAR":0.0034640556,"MEAN_MOTION_DOT":0.00079471,"MEAN_MOTION_DDOT":0},{"OBJECT_NAME":"COSMOS 2251 DEB","OBJECT_ID":"1993-036QC","EPOCH":"2026-03-04T10:14:22.142688","MEAN_MOTION":14.44052152,"ECCENTRICITY":0.00368179,"INCLINATION":74.039,"RA_OF_ASC_NODE":60.0325,"ARG_OF_PERICENTER":140.4449,"MEAN_ANOMALY":11.6168,"EPHEMERIS_TYPE":0,"CLASSIFICATION_TYPE":"U","NORAD_CAT_ID":34387,"ELEMENT_SET_NO":999,"REV_AT_EPOCH":89360,"BSTAR":0.00040590713,"MEAN_MOTION_DOT":1.374e-5,"MEAN_MOTION_DDOT":0},{"OBJECT_NAME":"COSMOS 2251 DEB","OBJECT_ID":"1993-036QD","EPOCH":"2026-03-05T08:00:55.253376","MEAN_MOTION":14.49904224,"ECCENTRICITY":0.00100415,"INCLINATION":74.0375,"RA_OF_ASC_NODE":68.1275,"ARG_OF_PERICENTER":102.3357,"MEAN_ANOMALY":319.2721,"EPHEMERIS_TYPE":0,"CLASSIFICATION_TYPE":"U","NORAD_CAT_ID":34388,"ELEMENT_SET_NO":999,"REV_AT_EPOCH":89352,"BSTAR":0.00095176945,"MEAN_MOTION_DOT":3.655e-5,"MEAN_MOTION_DDOT":0},{"OBJECT_NAME":"COSMOS 2251 DEB","OBJECT_ID":"1993-036QE","EPOCH":"2026-03-05T03:54:39.478752","MEAN_MOTION":14.41778765,"ECCENTRICITY":0.00297756,"INCLINATION":74.0165,"RA_OF_ASC_NODE":96.9506,"ARG_OF_PERICENTER":195.8622,"MEAN_ANOMALY":228.7957,"EPHEMERIS_TYPE":0,"CLASSIFICATION_TYPE":"U","NORAD_CAT_ID":34389,"ELEMENT_SET_NO":999,"REV_AT_EPOCH":89200,"BSTAR":0.00039336391,"MEAN_MOTION_DOT":1.265e-5,"MEAN_MOTION_DDOT":0},{"OBJECT_NAME":"COSMOS 2251 DEB","OBJECT_ID":"1993-036QM","EPOCH":"2026-03-05T04:38:01.089888","MEAN_MOTION":14.76989306,"ECCENTRICITY":0.00048491,"INCLINATION":74.0297,"RA_OF_ASC_NODE":322.6522,"ARG_OF_PERICENTER":326.5274,"MEAN_ANOMALY":190.72,"EPHEMERIS_TYPE":0,"CLASSIFICATION_TYPE":"U","NORAD_CAT_ID":34396,"ELEMENT_SET_NO":999,"REV_AT_EPOCH":89562,"BSTAR":0.0021218506,"MEAN_MOTION_DOT":0.00014957,"MEAN_MOTION_DDOT":0},{"OBJECT_NAME":"COSMOS 2251 DEB","OBJECT_ID":"1993-036RA","EPOCH":"2026-03-05T05:18:33.028704","MEAN_MOTION":14.58244112,"ECCENTRICITY":0.00806083,"INCLINATION":74.0636,"RA_OF_ASC_NODE":150.1634,"ARG_OF_PERICENTER":205.023,"MEAN_ANOMALY":185.7911,"EPHEMERIS_TYPE":0,"CLASSIFICATION_TYPE":"U","NORAD_CAT_ID":34409,"ELEMENT_SET_NO":999,"REV_AT_EPOCH":90395,"BSTAR":0.00029488672,"MEAN_MOTION_DOT":1.393e-5,"MEAN_MOTION_DDOT":0},{"OBJECT_NAME":"COSMOS 2251 DEB","OBJECT_ID":"1993-036RB","EPOCH":"2026-03-04T11:18:04.007808","MEAN_MOTION":15.29823435,"ECCENTRICITY":0.00260264,"INCLINATION":73.7302,"RA_OF_ASC_NODE":86.2163,"ARG_OF_PERICENTER":275.4105,"MEAN_ANOMALY":84.4126,"EPHEMERIS_TYPE":0,"CLASSIFICATION_TYPE":"U","NORAD_CAT_ID":34410,"ELEMENT_SET_NO":999,"REV_AT_EPOCH":91019,"BSTAR":0.0039850322,"MEAN_MOTION_DOT":0.00118101,"MEAN_MOTION_DDOT":0},{"OBJECT_NAME":"COSMOS 2251 DEB","OBJECT_ID":"1993-036RD","EPOCH":"2026-03-05T06:48:52.911936","MEAN_MOTION":14.48151878,"ECCENTRICITY":0.01885591,"INCLINATION":73.949,"RA_OF_ASC_NODE":169.2281,"ARG_OF_PERICENTER":246.7367,"MEAN_ANOMALY":111.3845,"EPHEMERIS_TYPE":0,"CLASSIFICATION_TYPE":"U","NORAD_CAT_ID":34412,"ELEMENT_SET_NO":999,"REV_AT_EPOCH":88845,"BSTAR":0.0013898031,"MEAN_MOTION_DOT":6.457e-5,"MEAN_MOTION_DDOT":0},{"OBJECT_NAME":"COSMOS 2251 DEB","OBJECT_ID":"1993-036RE","EPOCH":"2026-03-05T03:07:17.972832","MEAN_MOTION":14.29769778,"ECCENTRICITY":0.00898274,"INCLINATION":74.0293,"RA_OF_ASC_NODE":115.1622,"ARG_OF_PERICENTER":176.0174,"MEAN_ANOMALY":214.9482,"EPHEMERIS_TYPE":0,"CLASSIFICATION_TYPE":"U","NORAD_CAT_ID":34413,"ELEMENT_SET_NO":999,"REV_AT_EPOCH":88308,"BSTAR":0.0010991369,"MEAN_MOTION_DOT":2.924e-5,"MEAN_MOTION_DDOT":0},{"OBJECT_NAME":"COSMOS 2251 DEB","OBJECT_ID":"1993-036RM","EPOCH":"2026-03-05T03:07:21.682848","MEAN_MOTION":14.68518123,"ECCENTRICITY":0.01044528,"INCLINATION":74.033,"RA_OF_ASC_NODE":304.5659,"ARG_OF_PERICENTER":43.6647,"MEAN_ANOMALY":108.8942,"EPHEMERIS_TYPE":0,"CLASSIFICATION_TYPE":"U","NORAD_CAT_ID":34420,"ELEMENT_SET_NO":999,"REV_AT_EPOCH":90979,"BSTAR":0.00020692889,"MEAN_MOTION_DOT":1.269e-5,"MEAN_MOTION_DDOT":0},{"OBJECT_NAME":"COSMOS 2251 DEB","OBJECT_ID":"1993-036RS","EPOCH":"2026-03-04T22:37:43.089312","MEAN_MOTION":14.6268761,"ECCENTRICITY":0.00255804,"INCLINATION":74.016,"RA_OF_ASC_NODE":256.8774,"ARG_OF_PERICENTER":358.4292,"MEAN_ANOMALY":1.679,"EPHEMERIS_TYPE":0,"CLASSIFICATION_TYPE":"U","NORAD_CAT_ID":34425,"ELEMENT_SET_NO":999,"REV_AT_EPOCH":89942,"BSTAR":0.00061499087,"MEAN_MOTION_DOT":3.116e-5,"MEAN_MOTION_DDOT":0},{"OBJECT_NAME":"COSMOS 2251 DEB","OBJECT_ID":"1993-036RX","EPOCH":"2026-03-05T05:39:16.729920","MEAN_MOTION":14.39902313,"ECCENTRICITY":0.00610464,"INCLINATION":74.0518,"RA_OF_ASC_NODE":151.1243,"ARG_OF_PERICENTER":203.4228,"MEAN_ANOMALY":156.4145,"EPHEMERIS_TYPE":0,"CLASSIFICATION_TYPE":"U","NORAD_CAT_ID":34430,"ELEMENT_SET_NO":999,"REV_AT_EPOCH":89142,"BSTAR":0.00054650268,"MEAN_MOTION_DOT":1.729e-5,"MEAN_MOTION_DDOT":0},{"OBJECT_NAME":"COSMOS 2251 DEB","OBJECT_ID":"1993-036RY","EPOCH":"2026-03-04T21:35:40.099488","MEAN_MOTION":14.29082026,"ECCENTRICITY":0.00676365,"INCLINATION":74.0774,"RA_OF_ASC_NODE":26.4412,"ARG_OF_PERICENTER":349.0342,"MEAN_ANOMALY":10.9328,"EPHEMERIS_TYPE":0,"CLASSIFICATION_TYPE":"U","NORAD_CAT_ID":34431,"ELEMENT_SET_NO":999,"REV_AT_EPOCH":88316,"BSTAR":0.00092462991,"MEAN_MOTION_DOT":2.376e-5,"MEAN_MOTION_DDOT":0}]
