COSMOS 2251 DEB         
1 34343U 93036PR  26064.06548618  .00008788  00000+0  14276-2 0  9996
2 34343  74.0183 289.7069 0022703 186.5422 291.4543 14.71073543899408
COSMOS 2251 DEB         
1 34344U 93036PS  26063.90569344  .00003510  00000+0  15620-2 0  9990
2 34344  73.9791 323.5795 0154526 130.2034 355.2269 14.17053914872606
COSMOS 2251 DEB         
1 34346U 93036PU  26064.28390815  .00001490  00000+0  85259-3 0  9990
2 34346  73.9944 168.9730 0208884 328.6811  59.8760 14.00018231865656
COSMOS 2251 DEB         
1 34383U 93036PY  26064.26909415  .00079471  00000+0  34641-2 0  9993
2 34383  74.0257 125.9605 0013035 292.0269 141.1238 15.21718996903638
COSMOS 2251 DEB         
1 34387U 93036QC  26063.42664517  .00001374  00000+0  40591-3 0  9994
2 34387  74.0390  60.0325 0036817 140.4449  11.6168 14.44052152893604
COSMOS 2251 DEB         
1 34388U 93036QD  26064.33397284  .00003655  00000+0  95177-3 0  9994
2 34388  74.0375  68.1275 0010041 102.3357 319.2721 14.49904224893521
COSMOS 2251 DEB         
1 34389U 93036QE  26064.16295693  .00001265  00000+0  39336-3 0  9997
2 34389  74.0165  96.9506 0029775 195.8622 228.7957 14.41778765892009
COSMOS 2251 DEB         
1 34396U 93036QM  26064.19306817  .00014957  00000+0  21219-2 0  9991
2 34396  74.0297 322.6522 0004849 326.5274 190.7200 14.76989306895624
COSMOS 2251 DEB         
1 34409U 93036RA  26064.22121561  .00001393  00000+0  29489-3 0  9999
2 34409  74.0636 150.1634 0080608 205.0230 185.7911 14.58244112903952
COSMOS 2251 DEB         
1 34410U 93036RB  26063.47087972  .00118101  00000+0  39850-2 0  9992
2 34410  73.7302  86.2163 0026026 275.4105  84.4126 15.29823435910199
COSMOS 2251 DEB         
1 34412U 93036RD  26064.28394574  .00006457  00000+0  13898-2 0  9997
2 34412  73.9490 169.2281 0188559 246.7367 111.3845 14.48151878888451
COSMOS 2251 DEB         
1 34413U 93036RE  26064.13006913  .00002924  00000+0  10991-2 0  9995
2 34413  74.0293 115.1622 0089827 176.0174 214.9482 14.29769778883087
COSMOS 2251 DEB         
1 34420U 93036RM  26064.13011207  .00001269  00000+0  20693-3 0  9997
2 34420  74.0330 304.5659 0104452  43.6647 108.8942 14.68518123909795
COSMOS 2251 DEB         
1 34425U 93036RS  26063.94285983  .00003116  00000+0  61499-3 0  9996
2 34425  74.0160 256.8774 0025580 358.4292   1.6790 14.62687610899426
COSMOS 2251 DEB         
1 34430U 93036RX  26064.23561030  .00001729  00000+0  54650-3 0  9994
2 34430  74.0518 151.1243 0061046 203.4228 156.4145 14.39902313891421
COSMOS 2251 DEB         
1 34431U 93036RY  26063.89976967  .00002376  00000+0  92463-3 0  9998
2 34431  74.0774  26.4412 0067636 349.0342  10.9328 14.29082026883161
